STARLINK-1049
1 24754C 19074AT  21325.13611350  .00003368  00000-0  22562-3 0  3251
2 24754  53.0555  32.6257 0001067  64.6385 155.1725 15.06398766    18
